FENGYUN 1C DEB          
1 29957U 99025KF  17345.70019816  .00001257  00000-0  70263-3 0  9995
2 29957  98.9716  39.9748 0067844 254.6810 225.0521 14.11520292560217
